[{"OBJECT_NAME":"STARLINK-35569","OBJECT_ID":"2025-262R","EPOCH":"2026-03-09T00:14:08.728800","MEAN_MOTION":15.27594777,"ECCENTRICITY":5.701e-5,"INCLINATION":42.9935,"RA_OF_ASC_NODE":299.9058,"ARG_OF_PERICENTER":217.453,"MEAN_ANOMALY":142.6282,"EPHEMERIS_TYPE":0,"CLASSIFICATION_TYPE":"U","NORAD_CAT_ID":66471,"ELEMENT_SET_NO":999,"REV_AT_EPOCH":1880,"BSTAR":0.0010944296,"MEAN_MOTION_DOT":0.0002999,"MEAN_MOTION_DDOT":0},{"OBJECT_NAME":"CZ-2D R\/B","OBJECT_ID":"2025-227B","EPOCH":"2026-03-09T22:11:26.043072","MEAN_MOTION":15.30393637,"ECCENTRICITY":0.00198129,"INCLINATION":80.1514,"RA_OF_ASC_NODE":267.3771,"ARG_OF_PERICENTER":270.3655,"MEAN_ANOMALY":89.5307,"EPHEMERIS_TYPE":0,"CLASSIFICATION_TYPE":"U","NORAD_CAT_ID":65946,"ELEMENT_SET_NO":999,"REV_AT_EPOCH":2254,"BSTAR":0.00032251975,"MEAN_MOTION_DOT":9.557e-5,"MEAN_MOTION_DDOT":0}]
